#aV2015  2 17  0  0  0.00000000     288 DD+AD WGS84 FIT  NGA
## 1832 172800.00000000   300.00000000 57070 0.0000000000000
+   31     1  2  3  4  5  6  7  8  9 10 11 12 13 14 15 16 17
+         18 19 20 21 22 23 24 25 27 28 29 30 31 32  0  0  0
+          0  0  0  0  0  0  0  0  0  0  0  0  0  0  0  0  0
+          0  0  0  0  0  0  0  0  0  0  0  0  0  0  0  0  0
+          0  0  0  0  0  0  0  0  0  0  0  0  0  0  0  0  0
++         2  2  2  2  2  2  2  2  2  2  2  2  2  2  2  2  2
++         2  2  2  2  2  2  2  2  2  2  2  2  2  2  0  0  0
++         0  0  0  0  0  0  0  0  0  0  0  0  0  0  0  0  0
++         0  0  0  0  0  0  0  0  0  0  0  0  0  0  0  0  0
++         0  0  0  0  0  0  0  0  0  0  0  0  0  0  0  0  0
%c cc cc ccc ccc cccc cccc cccc cccc ccccc ccccc ccccc ccccc
%c cc cc ccc ccc cccc cccc cccc cccc ccccc ccccc ccccc ccccc
%f  0.0000000  0.000000000  0.00000000000  0.000000000000000
%f  0.0000000  0.000000000  0.00000000000  0.000000000000000
%i    0    0    0    0      0      0      0      0         0
%i    0    0    0    0      0      0      0      0         0
/*      NGA, ST. LOUIS,MO.                                  
/*   EPHEMERIS COMPUTED FROM  1 DAYS OF DATA                
/*   EPOCHA SMOOTHER                                       
/* CCCCCCCCCCCCCCCCCCCCCCCCCCCCCCCCCCCCCCCCCCCCCCCCCCCCCCCCC
*  2015  2 17  5 50  0.00000000
P  1  14032.146119  -6701.523028  21463.859605     -8.921483                    
V  1   5085.409377  26916.726276   5235.591074      0.004230                    
P  2 -14031.475254 -17728.230501 -13960.054654    548.449500                    
V  2  -1315.507348 -18285.630184  23482.573722      0.023002                    
P  3  22482.332058 -12146.362892   7336.684307    213.478529                    
V  3  -5413.163667   8016.792943  29835.963944      0.204262                    
P  4  16042.559571   4834.795410  20348.119636     -7.328739                    
V  4   4023.751633  26277.466019  -9012.125951     -0.006977                    
P  5 -16685.993426  -4898.726215 -20176.754151   -278.013864                    
V  5  18751.258055 -17316.263475 -11156.448446      0.050719                    
P  6  -6182.016667 -25740.239032  -2273.615589     84.306476                    
V  6   2202.716434  -3315.394876  31602.804364      0.112134                    
P  7   8066.892270 -19427.325872 -15898.012436    440.929662                    
V  7   4969.035026  19969.478744 -22095.582054      0.031141                    
P  8  10317.414835  19882.454603 -14546.005325     17.739656                    
V  8   -144.224095  18538.696222  24297.710931      0.002469                    
P  9  12786.275961 -10809.674511 -20629.394624    -89.282387                    
V  9  24316.611596   9747.628831   9957.857351     -0.113032                    
P 10    510.070000 -18548.216269 -19231.266655   -163.694872                    
V 10  19494.443417 -13810.154827  14541.816881     -0.017286                    
P 11  17627.338892   -463.016662  19373.990071   -558.422720                    
V 11  11350.138896  23449.320974  -9368.733166     -0.025839                    
P 12 -22699.350689   9055.015394  10039.912099    269.982162                    
V 12   9100.138249  -9344.812120  28978.717008      0.029661                    
P 13 -22932.462447 -13095.196694  -2284.957764    -88.959743                    
V 13   3532.916457   -996.350148 -31965.844718     -0.035739                    
P 14   7056.541438  17545.535657  18940.093650     86.678779                    
V 14 -21892.094534  -8624.840951  16203.052884     -0.035050                    
P 15 -25384.639609  -1732.086403   8078.702691   -232.751584                    
V 15  -8899.294359  -6119.431357 -28646.308144     -0.022284                    
P 16  15947.340744   5187.342792 -20755.377412   -155.621040                    
V 16 -20677.311684  15829.326256 -11601.371667      0.033164                    
P 17  -4860.330571 -16974.749437  20198.924565   -156.350651                    
V 17  23326.714231   8787.883691  12976.331732     -0.021741                    
P 18 -12815.304395  21054.109980   9958.440610    380.158687                    
V 18 -11542.562588   5229.794962 -27530.672752      0.027481                    
P 19  25024.197067   8089.168976   5011.574601   -500.850773                    
V 19   4941.176528   4741.245425 -30783.674648     -0.014160                    
P 20   8258.529345 -21657.769270 -13112.944592    290.593864                    
V 20  13973.049658  -9214.204997  24450.124269      0.040861                    
P 21  -4290.428595  23006.901168 -11492.348036   -417.511096                    
V 21  -6446.399373 -14907.706030 -26310.229767     -0.040749                    
P 22  -1520.828793  19473.426129  18143.084156    319.209217                    
V 22 -18634.384921  13304.640006 -16210.215182      0.043168                    
P 23  21866.054473  -3256.876649 -14891.455868    -89.328705                    
V 23  17089.647806   8567.726342  22590.547726     -0.026279                    
P 24 -14968.109456   3345.187663  21654.304767    -43.608102                    
V 24  -5274.677256 -27077.983600    675.828729     -0.006265                    
P 25 -19387.423359  17936.836089  -1880.773508     -4.366232                    
V 25  -3302.587700   -364.824658  32114.953701     -0.028330                    
P 27  22822.829937  12443.473931  -5703.289365     52.013500                    
V 27  -7623.368198   -114.180805 -30706.743441      0.026411                    
P 28   7581.176714 -19401.232003  17046.059779    420.067103                    
V 28  17197.890974 -11101.383702 -21154.597336      0.026246                    
P 29 -16298.090194   7530.132568 -19526.139866    592.617231                    
V 29 -22401.192832 -10809.409775  14544.522997      0.023645                    
P 30   2298.458104 -25548.364325  -6803.372996    -84.336313                    
V 30   3657.547151   8326.663067 -30109.061477      0.014214                    
P 31   7010.457824  24889.640138  -5073.982613    323.126955                    
V 31  -1595.656277   6965.553378  31447.321759     -0.008969                    
P 32  19791.141982   1340.202530  17385.067353   -221.764797                    
V 32 -16963.284735  14717.942433  18707.608741      0.090987                    
EOF
